NORAD_CAT_ID,OBJECT_NAME,OBJECT_TYPE,EPOCH,MEAN_MOTION,ECCENTRICITY,INCLINATION,RA_OF_ASC_NODE,ARG_OF_PERICENTER,MEAN_ANOMALY,BSTAR,MEAN_MOTION_DOT,MEAN_MOTION_DDOT,TLE_LINE0,TLE_LINE1,TLE_LINE2,SEMIMAJOR_AXIS,PERIOD,APOGEE,PERIGEE,DECAYED
52867.0,STARLINK-4126,PAYLOAD,2023-11-01 07:34:22,15.08855132,0.000173,53.2157,282.0019,93.1256,266.9934,0.00084932,0.0001326,0.0,0 STARLINK-4126,1 52867U 22062AP  23305.31554326  .00013260  00000-0  84932-3 0  9993,2 52867  53.2157 282.0019 0001730  93.1256 266.9934 15.08855132 76686,6917.834,95.437,540.896,538.502,0.0
52867.0,STARLINK-4126,PAYLOAD,2023-11-01 15:31:18,15.08849217,0.0002073,53.2176,280.5134,82.7535,277.3692,0.00036298,5.495e-05,0.0,0 STARLINK-4126,1 52867U 22062AP  23305.64674377  .00005495  00000-0  36298-3 0  9991,2 52867  53.2176 280.5134 0002073  82.7535 277.3692 15.08849217 76733,6917.852,95.437,541.151,538.283,0.0
52867.0,STARLINK-4126,PAYLOAD,2023-11-02 04:14:23,15.08843362,0.0002009,53.2178,278.1358,84.1386,275.9835,0.00013538,1.867e-05,0.0,0 STARLINK-4126,1 52867U 22062AP  23306.17666396  .00001867  00000-0  13538-3 0  9993,2 52867  53.2178 278.1358 0002009  84.1386 275.9835 15.08843362 76812,6917.87,95.437,541.125,538.345,0.0
52867.0,STARLINK-4126,PAYLOAD,2023-11-02 05:49:46,15.08844379,0.0001877,53.2168,277.8387,83.8078,276.3128,0.00016351,2.315e-05,0.0,0 STARLINK-4126,1 52867U 22062AP  23306.24290338  .00002315  00000-0  16351-3 0  9995,2 52867  53.2168 277.8387 0001877  83.8078 276.3128 15.08844379 76331,6917.867,95.437,541.03,538.434,0.0
52867.0,STARLINK-4126,PAYLOAD,2023-11-02 15:22:05,15.08842443,0.0001909,53.2168,276.0533,81.1903,278.9305,-4.2625e-06,-3.56e-06,0.0,0 STARLINK-4126,1 52867U 22062AP  23306.64034328 -.00000356  00000-0 -42625-5 0  9994,2 52867  53.2168 276.0533 0001909  81.1903 278.9305 15.08842443 76390,6917.873,95.437,541.059,538.417,0.0
52867.0,STARLINK-4126,PAYLOAD,2023-11-03 04:05:10,15.08840684,0.0001632,53.2156,273.6765,86.007,274.1108,-3.5734e-05,-8.57e-06,0.0,0 STARLINK-4126,1 52867U 22062AP  23307.17026492 -.00000857  00000-0 -35734-4 0  9994,2 52867  53.2156 273.6765 0001632  86.0070 274.1108 15.08840684 76966,6917.878,95.438,540.872,538.614,0.0
52867.0,STARLINK-4126,PAYLOAD,2023-11-03 07:15:57,15.08841404,0.0001682,53.2158,273.0813,84.3822,275.7362,-1.6311e-05,-5.48e-06,0.0,0 STARLINK-4126,1 52867U 22062AP  23307.30274485 -.00000548  00000-0 -16311-4 0  9993,2 52867  53.2158 273.0813 0001682  84.3822 275.7362 15.08841404 76495,6917.876,95.437,540.905,538.578,0.0
52867.0,STARLINK-4126,PAYLOAD,2023-11-04 03:55:57,15.08854317,0.0001591,53.2166,269.2136,92.6541,267.4633,0.00011144,1.487e-05,0.0,0 STARLINK-4126,1 52867U 22062AP  23308.16385698  .00001487  00000-0  11144-3 0  9996,2 52867  53.2166 269.2136 0001591  92.6541 267.4633 15.08854317 77114,6917.837,95.437,540.802,538.601,0.0
52867.0,STARLINK-4126,PAYLOAD,2023-11-05 03:46:44,15.08852571,0.0001658,53.2158,264.7537,95.4914,264.6267,0.0002859,4.267e-05,0.0,0 STARLINK-4126,1 52867U 22062AP  23309.15745921  .00004267  00000-0  28590-3 0  9997,2 52867  53.2158 264.7537 0001658  95.4914 264.6267 15.08852571 77267,6917.842,95.437,540.854,538.56,0.0
52867.0,STARLINK-4126,PAYLOAD,2023-11-05 06:57:30,15.0885769,0.0001719,53.2159,264.157,98.8915,261.2272,0.00035263,5.331e-05,0.0,0 STARLINK-4126,1 52867U 22062AP  23309.28993594  .00005331  00000-0  35263-3 0  9990,2 52867  53.2159 264.1570 0001719  98.8915 261.2272 15.08857690 76798,6917.826,95.436,540.88,538.502,0.0
52867.0,STARLINK-4126,PAYLOAD,2023-11-06 03:37:30,15.08881716,0.000169,53.2155,260.2934,92.6198,267.4988,0.00068176,0.00010591,0.0,0 STARLINK-4126,1 52867U 22062AP  23310.15104222  .00010591  00000-0  68176-3 0  9993,2 52867  53.2155 260.2934 0001690  92.6198 267.4988 15.08881716 77416,6917.753,95.435,540.787,538.449,0.0
52867.0,STARLINK-4126,PAYLOAD,2023-11-06 06:48:15,15.08884543,0.0001702,53.2159,259.6969,93.9517,266.167,0.0005307,8.178e-05,0.0,0 STARLINK-4126,1 52867U 22062AP  23310.28351342  .00008178  00000-0  53070-3 0  9999,2 52867  53.2159 259.6969 0001702  93.9517 266.1670 15.08884543 76945,6917.744,95.435,540.787,538.432,0.0
52867.0,STARLINK-4126,PAYLOAD,2023-11-07 01:52:55,15.08827039,0.0001514,53.2155,256.1302,116.5511,243.5637,-0.0003269,-5.485e-05,0.0,0 STARLINK-4126,1 52867U 22062AP  23311.07841917 -.00005485  00000-0 -32690-3 0  9994,2 52867  53.2155 256.1302 0001514 116.5511 243.5637 15.08827039 77558,6917.92,95.438,540.832,538.738,0.0
52867.0,STARLINK-4126,PAYLOAD,2023-11-07 06:39:05,15.08819952,0.0001192,53.215,255.2415,98.1373,261.9754,-0.00035619,-5.949e-05,0.0,0 STARLINK-4126,1 52867U 22062AP  23311.27714529 -.00005949  00000-0 -35619-3 0  9993,2 52867  53.2150 255.2415 0001192  98.1373 261.9754 15.08819952 77583,6917.942,95.439,540.631,538.982,0.0
52867.0,STARLINK-4126,PAYLOAD,2023-11-07 13:00:37,15.08820539,0.0001478,53.2159,254.0497,97.6874,262.4286,-0.00036435,-6.079e-05,0.0,0 STARLINK-4126,1 52867U 22062AP  23311.54210608 -.00006079  00000-0 -36435-3 0  9994,2 52867  53.2159 254.0497 0001478  97.6874 262.4286 15.08820539 77136,6917.94,95.439,540.827,538.782,0.0
52867.0,STARLINK-4126,PAYLOAD,2023-11-08 03:19:05,15.08838339,0.0001366,53.2146,251.3763,99.1337,260.981,-0.00011527,-2.122e-05,0.0,0 STARLINK-4126,1 52867U 22062AP  23312.13826308 -.00002122  00000-0 -11527-3 0  9990,2 52867  53.2146 251.3763 0001366  99.1337 260.9810 15.08838339 77712,6917.885,95.438,540.695,538.805,0.0
52867.0,STARLINK-4126,PAYLOAD,2023-11-09 04:45:15,15.0885054,0.0001414,53.2159,246.6153,110.5252,249.5892,0.00065391,0.00010137,0.0,0 STARLINK-4126,1 52867U 22062AP  23313.19810151  .00010137  00000-0  65391-3 0  9997,2 52867  53.2159 246.6153 0001414 110.5252 249.5892 15.08850540 77872,6917.848,95.437,540.691,538.735,0.0
52867.0,STARLINK-4126,PAYLOAD,2023-11-10 03:00:41,15.0884033,0.0001341,53.2166,242.4532,79.3597,280.7546,5.7295e-05,6.24e-06,0.0,0 STARLINK-4126,1 52867U 22062AP  23314.12547474  .00000624  00000-0  57295-4 0  9991,2 52867  53.2166 242.4532 0001341  79.3597 280.7546 15.08840330 78014,6917.879,95.438,540.672,538.817,0.0
52867.0,STARLINK-4126,PAYLOAD,2023-11-10 12:32:59,15.08841201,0.0001278,53.2162,240.6696,91.7784,268.3355,5.1326e-05,5.29e-06,0.0,0 STARLINK-4126,1 52867U 22062AP  23314.52291364  .00000529  00000-0  51326-4 0  9992,2 52867  53.2162 240.6696 0001278  91.7784 268.3355 15.08841201 77585,6917.877,95.437,540.626,538.858,0.0
52867.0,STARLINK-4126,PAYLOAD,2023-11-11 04:26:50,15.0885338,0.0001371,53.2161,237.6923,103.3251,256.7894,9.5589e-05,1.234e-05,0.0,0 STARLINK-4126,1 52867U 22062AP  23315.18530307  .00001234  00000-0  95589-4 0  9991,2 52867  53.2161 237.6923 0001371 103.3251 256.7894 15.08853380 78172,6917.839,95.437,540.653,538.756,0.0
52867.0,STARLINK-4126,PAYLOAD,2023-11-11 12:23:46,15.0883698,0.0001837,53.2166,236.2074,89.6235,270.4968,-0.00010423,-1.946e-05,0.0,0 STARLINK-4126,1 52867U 22062AP  23315.51651270 -.00001946  00000-0 -10423-3 0  9996,2 52867  53.2166 236.2074 0001837  89.6235 270.4968 15.08836980 77737,6917.89,95.438,541.025,538.484,0.0
52867.0,STARLINK-4126,PAYLOAD,2023-11-11 18:45:19,15.08833764,0.0001512,53.2154,235.0192,85.1779,274.9385,6.9858e-05,8.24e-06,0.0,0 STARLINK-4126,1 52867U 22062AP  23315.78147661  .00000824  00000-0  69858-4 0  9998,2 52867  53.2154 235.0192 0001512  85.1779 274.9385 15.08833764 78264,6917.899,95.438,540.81,538.718,0.0
52867.0,STARLINK-4126,PAYLOAD,2023-11-12 12:14:33,15.08840902,0.0001421,53.2156,231.7472,91.4852,268.6302,0.00015607,2.197e-05,0.0,0 STARLINK-4126,1 52867U 22062AP  23316.51011489  .00002197  00000-0  15607-3 0  9995,2 52867  53.2156 231.7472 0001421  91.4852 268.6302 15.08840902 77889,6917.878,95.437,540.726,538.76,0.0
52867.0,STARLINK-4126,PAYLOAD,2023-11-12 18:36:06,15.08843481,0.0001548,53.2159,230.5573,94.1905,265.9264,0.00013924,1.929e-05,0.0,0 STARLINK-4126,1 52867U 22062AP  23316.77507297  .00001929  00000-0  13924-3 0  9992,2 52867  53.2159 230.5573 0001548  94.1905 265.9264 15.08843481 78412,6917.87,95.437,540.806,538.664,0.0
52867.0,STARLINK-4126,PAYLOAD,2023-11-12 21:46:52,15.08845418,0.0001406,53.2154,229.9635,89.8996,270.2158,0.00020265,2.939e-05,0.0,0 STARLINK-4126,1 52867U 22062AP  23316.90755269  .00002939  00000-0  20265-3 0  9999,2 52867  53.2154 229.9635 0001406  89.8996 270.2158 15.08845418 77942,6917.864,95.437,540.701,538.756,0.0
52867.0,STARLINK-4126,PAYLOAD,2023-11-13 04:08:24,15.0885713,0.0001522,53.2154,228.7725,97.3072,262.8093,0.00029247,4.372e-05,0.0,0 STARLINK-4126,1 52867U 22062AP  23317.17250647  .00004372  00000-0  29247-3 0  9991,2 52867  53.2154 228.7725 0001522  97.3072 262.8093 15.08857130 78475,6917.828,95.436,540.746,538.64,0.0
52867.0,STARLINK-4126,PAYLOAD,2023-11-14 00:48:26,15.08841882,0.0001433,53.2153,224.9079,84.1591,275.9564,0.00013226,1.818e-05,0.0,0 STARLINK-4126,1 52867U 22062AP  23318.03363485  .00001818  00000-0  13226-3 0  9994,2 52867  53.2153 224.9079 0001433  84.1591 275.9564 15.08841882 78605,6917.875,95.437,540.731,538.748,0.0
52867.0,STARLINK-4126,PAYLOAD,2023-11-14 10:20:44,15.08840622,0.0001446,53.2155,223.1237,81.9199,278.1957,5.3266e-05,5.6e-06,0.0,0 STARLINK-4126,1 52867U 22062AP  23318.43107432  .00000560  00000-0  53266-4 0  9998,2 52867  53.2155 223.1237 0001446  81.9199 278.1957 15.08840622 78171,6917.878,95.438,540.744,538.743,0.0
52867.0,STARLINK-4126,PAYLOAD,2023-11-15 18:08:27,15.08839262,0.0001429,53.2152,217.1753,78.5596,281.5556,7.747e-05,9.45e-06,0.0,0 STARLINK-4126,1 52867U 22062AP  23319.75587583  .00000945  00000-0  77470-4 0  9993,2 52867  53.2152 217.1753 0001429  78.5596 281.5556 15.08839262 78865,6917.883,95.438,540.736,538.759,0.0
52867.0,STARLINK-4126,PAYLOAD,2023-11-16 00:30:00,15.08840929,0.0001475,53.2154,215.9874,79.8478,280.268,0.00013754,1.902e-05,0.0,0 STARLINK-4126,1 52867U 22062AP  23320.02083584  .00001902  00000-0  13754-3 0  9995,2 52867  53.2154 215.9874 0001475  79.8478 280.2680 15.08840929 78418,6917.878,95.437,540.763,538.722,0.0
